EUTELSAT 8 WEST B       
1 40875U 15039B   25290.76725654 -.00000074  00000+0  00000+0 0  9992
2 40875   0.0695  12.5497 0003844 196.6076  85.5785  1.00271724 37224
EUTELSAT 9B             
1 41310U 16005A   25290.77063654  .00000053  00000+0  00000+0 0  9993
2 41310   0.0567  59.2204 0003748 180.7414  73.0035  1.00270262 35688
EUTELSAT 65 WEST A      
1 41382U 16014A   25290.82723015 -.00000285  00000+0  00000+0 0  9990
2 41382   0.0929  53.3751 0002264 160.8107  45.0138  1.00270524 35102
EUTELSAT 117 WEST B     
1 41589U 16038B   25290.46022926 -.00000022  00000+0  00000+0 0  9997
2 41589   0.0096  74.6342 0000272   4.7906 355.4818  1.00270901 34222
EUTELSAT 172B           
1 42741U 17029B   25290.80296338 -.00000014  00000+0  00000+0 0  9998
2 42741   0.0173 177.8185 0000166 165.4884 144.3125  1.00271226 31305
EUTELSAT 7C             
1 44334U 19034B   25290.27072269  .00000038  00000+0  00000+0 0  9997
2 44334   0.0652 184.4805 0003176   6.3492 299.6659  1.00271150  4405
EUTELSAT 5 WEST B       
1 44624U 19067A   25290.83919022 -.00000050  00000+0  00000+0 0  9999
2 44624   0.0737  29.3460 0003233 182.6145 111.7449  1.00272252 22003
EUTELSAT KONNECT        
1 45027U 20005B   25290.77028987  .00000041  00000+0  00000+0 0  9994
2 45027   0.0694  91.5995 0001901 132.8968  86.5414  1.00273832 21899
